NORAD_CAT_ID,OBJECT_NAME,OBJECT_TYPE,EPOCH,MEAN_MOTION,ECCENTRICITY,INCLINATION,RA_OF_ASC_NODE,ARG_OF_PERICENTER,MEAN_ANOMALY,BSTAR,MEAN_MOTION_DOT,MEAN_MOTION_DDOT,TLE_LINE0,TLE_LINE1,TLE_LINE2,SEMIMAJOR_AXIS,PERIOD,APOGEE,PERIGEE,DECAYED
55401.0,STARLINK-5076,PAYLOAD,2024-02-10 11:23:16,14.98316561,0.0002757,70.0015,176.1261,269.954,90.1303,0.00020551,2.359e-05,0.0,0 STARLINK-5076,1 55401U 23014L   24041.47449922  .00002359  00000-0  20551-3 0  9992,2 55401  70.0015 176.1261 0002757 269.9540  90.1303 14.98316561 57541,6950.234,96.108,574.016,570.183,0.0
55401.0,STARLINK-5076,PAYLOAD,2024-02-10 12:59:25,14.98303892,0.0002853,70.0015,175.9578,268.1397,91.9435,0.00041777,4.892e-05,0.0,0 STARLINK-5076,1 55401U 23014L   24041.54126251  .00004892  00000-0  41777-3 0  9994,2 55401  70.0015 175.9578 0002853 268.1397  91.9435 14.98303892 58490,6950.274,96.109,574.122,570.156,0.0
55401.0,STARLINK-5076,PAYLOAD,2024-02-10 19:23:56,14.98340553,0.0002409,70.0016,175.2833,263.3911,96.6974,-0.0001335,-1.686e-05,0.0,0 STARLINK-5076,1 55401U 23014L   24041.80829197 -.00001686  00000-0 -13350-3 0  9998,2 55401  70.0016 175.2833 0002409 263.3911  96.6974 14.98340553 57599,6950.16,96.106,573.7,570.351,0.0
55401.0,STARLINK-5076,PAYLOAD,2024-02-11 11:25:17,14.98323812,0.0002522,70.0018,173.6017,252.5664,107.5219,-8.1069e-06,-1.9e-06,0.0,0 STARLINK-5076,1 55401U 23014L   24042.47589979 -.00000190  00000-0 -81069-5 0  9996,2 55401  70.0018 173.6017 0002522 252.5664 107.5219 14.98323812 57692,6950.212,96.107,573.83,570.324,0.0
55401.0,STARLINK-5076,PAYLOAD,2024-02-11 14:37:33,14.98324201,0.0002591,70.0017,173.2659,257.9904,102.0964,-1.6934e-05,-2.95e-06,0.0,0 STARLINK-5076,1 55401U 23014L   24042.60942079 -.00000295  00000-0 -16934-4 0  9999,2 55401  70.0017 173.2659 0002591 257.9904 102.0964 14.98324201 58658,6950.211,96.107,573.877,570.275,0.0
55401.0,STARLINK-5076,PAYLOAD,2024-02-11 19:25:58,14.98324625,0.0002484,70.0022,172.7596,250.6596,109.4295,2.1149e-05,1.59e-06,0.0,0 STARLINK-5076,1 55401U 23014L   24042.80969933  .00000159  00000-0  21149-4 0  9990,2 55401  70.0022 172.7596 0002484 250.6596 109.4295 14.98324625 58687,6950.21,96.107,573.801,570.348,0.0
55401.0,STARLINK-5076,PAYLOAD,2024-02-12 11:27:18,14.98329625,0.0002769,70.0014,171.0765,261.8125,98.272,6.1766e-05,6.44e-06,0.0,0 STARLINK-5076,1 55401U 23014L   24043.47729386  .00000644  00000-0  61766-4 0  9998,2 55401  70.0014 171.0765 0002769 261.8125  98.2720 14.98329625 57846,6950.194,96.107,573.984,570.135,0.0
55401.0,STARLINK-5076,PAYLOAD,2024-02-12 14:39:34,14.98329469,0.0002775,70.0014,170.7397,261.4973,98.5872,5.6938e-05,5.86e-06,0.0,0 STARLINK-5076,1 55401U 23014L   24043.61081417  .00000586  00000-0  56938-4 0  9990,2 55401  70.0014 170.7397 0002775 261.4973  98.5872 14.98329469 58801,6950.195,96.107,573.988,570.131,0.0
55401.0,STARLINK-5076,PAYLOAD,2024-02-12 17:51:50,14.98332511,0.0002688,70.0017,170.4038,259.291,100.7947,9.1502e-05,9.99e-06,0.0,0 STARLINK-5076,1 55401U 23014L   24043.74433114  .00000999  00000-0  91502-4 0  9993,2 55401  70.0017 170.4038 0002688 259.2910 100.7947 14.98332511 58825,6950.185,96.107,573.918,570.182,0.0
55401.0,STARLINK-5076,PAYLOAD,2024-02-13 11:29:19,14.98324773,0.0002672,70.0016,168.553,257.9661,102.1199,3.9169e-05,3.74e-06,0.0,0 STARLINK-5076,1 55401U 23014L   24044.47869826  .00000374  00000-0  39169-4 0  9995,2 55401  70.0016 168.5530 0002672 257.9661 102.1199 14.98324773 57993,6950.209,96.107,573.931,570.217,0.0
55401.0,STARLINK-5076,PAYLOAD,2024-02-13 14:41:35,14.98325485,0.0002813,70.0017,168.2174,265.749,94.3347,2.5598e-05,2.12e-06,0.0,0 STARLINK-5076,1 55401U 23014L   24044.61221931  .00000212  00000-0  25598-4 0  9992,2 55401  70.0017 168.2174 0002813 265.7490  94.3347 14.98325485 58954,6950.207,96.107,574.027,570.117,0.0
55401.0,STARLINK-5076,PAYLOAD,2024-02-13 17:53:51,14.98329402,0.0002882,70.0009,167.878,266.4202,93.6628,2.8681e-05,2.49e-06,0.0,0 STARLINK-5076,1 55401U 23014L   24044.74573654  .00000249  00000-0  28681-4 0  9994,2 55401  70.0009 167.8780 0002882 266.4202  93.6628 14.98329402 58977,6950.195,96.107,574.063,570.057,0.0
55401.0,STARLINK-5076,PAYLOAD,2024-02-14 09:55:11,14.98339016,0.0003026,70.0005,166.1945,270.5193,89.562,7.5521e-05,8.08e-06,0.0,0 STARLINK-5076,1 55401U 23014L   24045.41332737  .00000808  00000-0  75521-4 0  9990,2 55401  70.0005 166.1945 0003026 270.5193  89.5620 14.98339016 58130,6950.165,96.106,574.133,569.927,0.0
55401.0,STARLINK-5076,PAYLOAD,2024-02-14 14:43:35,14.98346269,0.0002978,70.0005,165.6897,269.223,90.8588,0.00011902,1.328e-05,0.0,0 STARLINK-5076,1 55401U 23014L   24045.61360026  .00001328  00000-0  11902-3 0  9994,2 55401  70.0005 165.6897 0002978 269.2230  90.8588 14.98346269 59106,6950.143,96.106,574.077,569.938,0.0
55401.0,STARLINK-5076,PAYLOAD,2024-02-14 16:19:42,14.98351156,0.0002597,70.0009,165.5215,256.731,103.356,6.2405e-05,6.52e-06,0.0,0 STARLINK-5076,1 55401U 23014L   24045.68035778  .00000652  00000-0  62405-4 0  9998,2 55401  70.0009 165.5215 0002597 256.7310 103.3560 14.98351156 58177,6950.127,96.106,573.797,570.188,0.0
55401.0,STARLINK-5076,PAYLOAD,2024-02-15 11:33:21,14.98317545,0.0002717,70.0008,163.4998,274.0196,86.0653,5.3238e-06,-2.9e-07,0.0,0 STARLINK-5076,1 55401U 23014L   24046.48150103 -.00000029  00000-0  53238-5 0  9991,2 55401  70.0008 163.4998 0002717 274.0196  86.0653 14.98317545 58297,6950.231,96.108,573.985,570.208,0.0
55401.0,STARLINK-5076,PAYLOAD,2024-02-15 14:45:38,14.98318664,0.0002879,70.0006,163.1643,270.5656,89.5173,-0.00010405,-1.334e-05,0.0,0 STARLINK-5076,1 55401U 23014L   24046.61502380 -.00001334  00000-0 -10405-3 0  9992,2 55401  70.0006 163.1643 0002879 270.5656  89.5173 14.98318664 59255,6950.228,96.108,574.094,570.092,0.0
55401.0,STARLINK-5076,PAYLOAD,2024-02-15 17:57:53,14.98322573,0.0002888,70.0009,162.8288,264.2341,95.8489,-4.6718e-05,-6.5e-06,0.0,0 STARLINK-5076,1 55401U 23014L   24046.74853990 -.00000650  00000-0 -46718-4 0  9999,2 55401  70.0009 162.8288 0002888 264.2341  95.8489 14.98322573 59276,6950.216,96.107,574.088,570.074,0.0
55401.0,STARLINK-5076,PAYLOAD,2024-02-16 00:22:25,14.983265,0.0002867,70.0008,162.1555,264.7975,95.2857,-2.2843e-05,-3.65e-06,0.0,0 STARLINK-5076,1 55401U 23014L   24047.01557736 -.00000365  00000-0 -22843-4 0  9995,2 55401  70.0008 162.1555 0002867 264.7975  95.2857 14.98326500 58377,6950.204,96.107,574.061,570.076,0.0
55401.0,STARLINK-5076,PAYLOAD,2024-02-16 11:35:21,14.98387607,0.0002749,70.0006,160.9767,256.9466,103.1386,-0.00090589,-0.00010901,0.0,0 STARLINK-5076,1 55401U 23014L   24047.48288395 -.00010901  00000-0 -90589-3 0  9996,2 55401  70.0006 160.9767 0002749 256.9466 103.1386 14.98387607 58442,6950.015,96.103,573.79,569.969,0.0
55401.0,STARLINK-5076,PAYLOAD,2024-02-16 14:47:37,14.98338276,0.0002758,70.001,160.6404,265.5694,94.515,-2.242e-05,-3.61e-06,0.0,0 STARLINK-5076,1 55401U 23014L   24047.61640838 -.00000361  00000-0 -22420-4 0  9994,2 55401  70.0010 160.6404 0002758 265.5694  94.5150 14.98338276 59408,6950.167,96.106,573.949,570.115,0.0
55401.0,STARLINK-5076,PAYLOAD,2024-02-16 17:59:53,14.98354939,0.0002485,70.0013,160.3032,254.7278,105.3607,-0.00015248,-1.913e-05,0.0,0 STARLINK-5076,1 55401U 23014L   24047.74991931 -.00001913  00000-0 -15248-3 0  9994,2 55401  70.0013 160.3032 0002485 254.7278 105.3607 14.98354939 58489,6950.116,96.105,573.708,570.254,0.0
55401.0,STARLINK-5076,PAYLOAD,2024-02-17 00:24:26,14.98334694,0.000295,70.0008,159.6297,274.6939,85.3883,-9.3209e-05,-1.205e-05,0.0,0 STARLINK-5076,1 55401U 23014L   24048.01696935 -.00001205  00000-0 -93209-4 0  9999,2 55401  70.0008 159.6297 0002950 274.6939  85.3883 14.98334694 58523,6950.178,96.107,574.094,569.993,0.0
55401.0,STARLINK-5076,PAYLOAD,2024-02-17 11:37:23,14.98319204,0.0002551,70.0013,158.4529,270.0038,90.0828,1.6037e-05,9.8e-07,0.0,0 STARLINK-5076,1 55401U 23014L   24048.48429949  .00000098  00000-0  16037-4 0  9990,2 55401  70.0013 158.4529 0002551 270.0038  90.0828 14.98319204 58590,6950.226,96.108,573.864,570.318,0.0
55401.0,STARLINK-5076,PAYLOAD,2024-02-17 14:49:39,14.98320652,0.0002908,70.0009,158.1152,269.1546,90.928,9.9086e-05,1.089e-05,0.0,0 STARLINK-5076,1 55401U 23014L   24048.61781678  .00001089  00000-0  99086-4 0  9991,2 55401  70.0009 158.1152 0002908 269.1546  90.9280 14.98320652 59550,6950.222,96.108,574.108,570.066,0.0
55401.0,STARLINK-5076,PAYLOAD,2024-02-17 16:25:47,14.98322,0.0002958,70.0009,157.9469,269.9756,90.1064,0.00011242,1.248e-05,0.0,0 STARLINK-5076,1 55401U 23014L   24048.68457582  .00001248  00000-0  11242-3 0  9996,2 55401  70.0009 157.9469 0002958 269.9756  90.1064 14.98322000 59566,6950.218,96.108,574.139,570.027,0.0
55401.0,STARLINK-5076,PAYLOAD,2024-02-18 00:26:27,14.98342129,0.0003287,70.0008,157.1045,272.4601,87.6182,-0.00015442,-1.936e-05,0.0,0 STARLINK-5076,1 55401U 23014L   24049.01836844 -.00001936  00000-0 -15442-3 0  9998,2 55401  70.0008 157.1045 0003287 272.4601  87.6182 14.98342129 58678,6950.155,96.106,574.305,569.736,0.0
55401.0,STARLINK-5076,PAYLOAD,2024-02-18 11:39:23,14.98332445,0.0002936,70.001,155.928,270.1541,89.9282,7.4959e-06,-4e-08,0.0,0 STARLINK-5076,1 55401U 23014L   24049.48569284 -.00000004  00000-0  74959-5 0  9994,2 55401  70.0010 155.9280 0002936 270.1541  89.9282 14.98332445 58740,6950.185,96.107,574.091,570.01,0.0
55401.0,STARLINK-5076,PAYLOAD,2024-02-18 14:51:39,14.98339132,0.0002935,70.0006,155.5907,267.9609,92.1214,4.6654e-05,4.64e-06,0.0,0 STARLINK-5076,1 55401U 23014L   24049.61920663  .00000464  00000-0  46654-4 0  9990,2 55401  70.0006 155.5907 0002935 267.9609  92.1214 14.98339132 59703,6950.165,96.106,574.07,569.99,0.0
55401.0,STARLINK-5076,PAYLOAD,2024-02-18 16:27:47,14.98337844,0.0002764,70.0013,155.4241,269.277,90.8072,6.4649e-05,6.79e-06,0.0,0 STARLINK-5076,1 55401U 23014L   24049.68596694  .00000679  00000-0  64649-4 0  9992,2 55401  70.0013 155.4241 0002764 269.2770  90.8072 14.98337844 58776,6950.169,96.106,573.955,570.113,0.0
